{
  "norad_id": 57738,
  "name": "STARLINK-30351",
  "history": [
    {
      "epoch": "2026-03-28T08:31:31.543680Z",
      "apogee_km": 483.9840540662872,
      "perigee_km": 482.1228875391771,
      "latitude_deg": -1.175772028260654e-05,
      "longitude_deg": 113.16999282678687,
      "height_km": 482.81182786371926,
      "semi_major_axis_km": 6861.190470802732,
      "eccentricity": 0.00013563,
      "inclination_deg": 42.9982,
      "raan_deg": 66.8283,
      "arg_perigee_deg": 271.1152,
      "mean_anomaly_deg": 88.9544,
      "mean_motion_rev_day": 15.27578539
    },
    {
      "epoch": "2026-03-29T00:13:04.702944Z",
      "apogee_km": 483.9431117281656,
      "perigee_km": 482.09060018705713,
      "latitude_deg": 4.729810480892822e-06,
      "longitude_deg": -126.55652332802121,
      "height_km": 482.8029713927168,
      "semi_major_axis_km": 6861.153855957611,
      "eccentricity": 0.000135,
      "inclination_deg": 43.0013,
      "raan_deg": 63.1344,
      "arg_perigee_deg": 269.4239,
      "mean_anomaly_deg": 90.6458,
      "mean_motion_rev_day": 15.27590767
    },
    {
      "epoch": "2026-03-30T04:27:54.417600Z",
      "apogee_km": 484.2743018649471,
      "perigee_km": 481.8728781584432,
      "latitude_deg": -7.527610608959265e-06,
      "longitude_deg": 161.9287509793191,
      "height_km": 482.8314975561389,
      "semi_major_axis_km": 6861.210590011695,
      "eccentricity": 0.000175,
      "inclination_deg": 43.0019,
      "raan_deg": 56.4869,
      "arg_perigee_deg": 270.9206,
      "mean_anomaly_deg": 89.1445,
      "mean_motion_rev_day": 15.2757182
    },
    {
      "epoch": "2026-03-30T06:02:03.825024Z",
      "apogee_km": 484.07442796663145,
      "perigee_km": 482.0738360247651,
      "latitude_deg": 2.21167981467624e-05,
      "longitude_deg": 137.95593703447406,
      "height_km": 482.8891904190501,
      "semi_major_axis_km": 6861.211131995698,
      "eccentricity": 0.00014579,
      "inclination_deg": 43.0012,
      "raan_deg": 56.1177,
      "arg_perigee_deg": 267.8124,
      "mean_anomaly_deg": 92.2561,
      "mean_motion_rev_day": 15.27571639
    },
    {
      "epoch": "2026-03-30T07:36:13.222944Z",
      "apogee_km": 484.0578947157137,
      "perigee_km": 482.08694369795376,
      "latitude_deg": -1.1876049223801631e-05,
      "longitude_deg": 113.98359493586987,
      "height_km": 482.8886099020414,
      "semi_major_axis_km": 6861.209419206833,
      "eccentricity": 0.00014363,
      "inclination_deg": 43.0019,
      "raan_deg": 55.749,
      "arg_perigee_deg": 267.7173,
      "mean_anomaly_deg": 92.3514,
      "mean_motion_rev_day": 15.27572211
    },
    {
      "epoch": "2026-03-31T05:34:23.511648Z",
      "apogee_km": 484.148577162503,
      "perigee_km": 481.84735249529876,
      "latitude_deg": 8.282716613842104e-06,
      "longitude_deg": 138.3688916313653,
      "height_km": 482.9129130989765,
      "semi_major_axis_km": 6861.134964828901,
      "eccentricity": 0.0001677,
      "inclination_deg": 43.0024,
      "raan_deg": 50.5794,
      "arg_perigee_deg": 263.1223,
      "mean_anomaly_deg": 96.9438,
      "mean_motion_rev_day": 15.27597076
    },
    {
      "epoch": "2026-04-01T05:06:45.341856Z",
      "apogee_km": 484.19155096440227,
      "perigee_km": 481.92735613473087,
      "latitude_deg": 2.3721508964352643e-05,
      "longitude_deg": 138.77162153994465,
      "height_km": 483.03935239598076,
      "semi_major_axis_km": 6861.196453549566,
      "eccentricity": 0.000165,
      "inclination_deg": 43.0025,
      "raan_deg": 45.0398,
      "arg_perigee_deg": 259.6822,
      "mean_anomaly_deg": 100.3844,
      "mean_motion_rev_day": 15.27576541
    },
    {
      "epoch": "2026-04-02T04:39:05.827680Z",
      "apogee_km": 484.18641774554726,
      "perigee_km": 481.8780459691807,
      "latitude_deg": 3.577645109158753e-05,
      "longitude_deg": 139.1808645427745,
      "height_km": 482.99754747685665,
      "semi_major_axis_km": 6861.169231857364,
      "eccentricity": 0.00016822,
      "inclination_deg": 43.0019,
      "raan_deg": 39.5011,
      "arg_perigee_deg": 260.6144,
      "mean_anomaly_deg": 99.4518,
      "mean_motion_rev_day": 15.27585632
    },
    {
      "epoch": "2026-04-03T19:53:01.061664Z",
      "apogee_km": 483.97247494624935,
      "perigee_km": 482.18581426219407,
      "latitude_deg": -4.142918366809403e-05,
      "longitude_deg": -100.14226026439584,
      "height_km": 482.8088448278532,
      "semi_major_axis_km": 6861.216144604221,
      "eccentricity": 0.0001302,
      "inclination_deg": 43.0008,
      "raan_deg": 30.2694,
      "arg_perigee_deg": 273.0171,
      "mean_anomaly_deg": 87.0531,
      "mean_motion_rev_day": 15.27569965
    },
    {
      "epoch": "2026-04-04T05:17:57.475104Z",
      "apogee_km": 483.7746943629336,
      "perigee_km": 482.361148924977,
      "latitude_deg": 3.832411355905187e-06,
      "longitude_deg": 116.02274393758196,
      "height_km": 482.58165705952206,
      "semi_major_axis_km": 6861.2049216439555,
      "eccentricity": 0.00010301,
      "inclination_deg": 42.9997,
      "raan_deg": 28.0561,
      "arg_perigee_deg": 291.8102,
      "mean_anomaly_deg": 68.264,
      "mean_motion_rev_day": 15.27573713
    },
    {
      "epoch": "2026-04-05T04:50:18.742848Z",
      "apogee_km": 484.0540256956192,
      "perigee_km": 482.1138096445211,
      "latitude_deg": -4.348902119645404e-05,
      "longitude_deg": 116.42685449787666,
      "height_km": 482.86615249697263,
      "semi_major_axis_km": 6861.22091767007,
      "eccentricity": 0.00014139,
      "inclination_deg": 43.0038,
      "raan_deg": 22.5156,
      "arg_perigee_deg": 269.6992,
      "mean_anomaly_deg": 90.3697,
      "mean_motion_rev_day": 15.27568371
    },
    {
      "epoch": "2026-04-05T18:57:42.909408Z",
      "apogee_km": 484.55934844369403,
      "perigee_km": 481.53631040784876,
      "latitude_deg": 3.128013903284316e-05,
      "longitude_deg": -99.327987420065,
      "height_km": 483.4958969092834,
      "semi_major_axis_km": 6861.184829425771,
      "eccentricity": 0.0002203,
      "inclination_deg": 43.0043,
      "raan_deg": 19.1914,
      "arg_perigee_deg": 243.6653,
      "mean_anomaly_deg": 116.3973,
      "mean_motion_rev_day": 15.27580423
    },
    {
      "epoch": "2026-04-06T04:22:39.385920Z",
      "apogee_km": 484.1542154871777,
      "perigee_km": 481.93489770088127,
      "latitude_deg": -3.2129965216875853e-06,
      "longitude_deg": 116.83676760930484,
      "height_km": 483.0694893739658,
      "semi_major_axis_km": 6861.181556594029,
      "eccentricity": 0.00016173,
      "inclination_deg": 43.0034,
      "raan_deg": 16.9782,
      "arg_perigee_deg": 257.0994,
      "mean_anomaly_deg": 102.9677,
      "mean_motion_rev_day": 15.27581516
    },
    {
      "epoch": "2026-04-07T02:20:50.676864Z",
      "apogee_km": 484.3077525960607,
      "perigee_km": 481.7595138228862,
      "latitude_deg": 2.289445702334166e-05,
      "longitude_deg": 141.21837978210542,
      "height_km": 483.0158426213228,
      "semi_major_axis_km": 6861.170633209473,
      "eccentricity": 0.0001857,
      "inclination_deg": 43.0038,
      "raan_deg": 11.8091,
      "arg_perigee_deg": 260.7516,
      "mean_anomaly_deg": 99.3126,
      "mean_motion_rev_day": 15.27585164
    },
    {
      "epoch": "2026-04-08T01:53:11.516928Z",
      "apogee_km": 484.41485977963566,
      "perigee_km": 481.6878118636805,
      "latitude_deg": 5.452334298877923e-06,
      "longitude_deg": 141.62540729562872,
      "height_km": 483.04707658339913,
      "semi_major_axis_km": 6861.188335821658,
      "eccentricity": 0.00019873,
      "inclination_deg": 43.0051,
      "raan_deg": 6.2697,
      "arg_perigee_deg": 260.7976,
      "mean_anomaly_deg": 99.2651,
      "mean_motion_rev_day": 15.27579252
    },
    {
      "epoch": "2026-04-09T01:25:32.901312Z",
      "apogee_km": 484.1641983249492,
      "perigee_km": 481.97739417612775,
      "latitude_deg": -6.344016115866652e-06,
      "longitude_deg": 142.0303664905998,
      "height_km": 482.8276721757742,
      "semi_major_axis_km": 6861.207796250538,
      "eccentricity": 0.00015936,
      "inclination_deg": 43.0053,
      "raan_deg": 0.7305,
      "arg_perigee_deg": 271.0784,
      "mean_anomaly_deg": 88.9885,
      "mean_motion_rev_day": 15.27572753
    },
    {
      "epoch": "2026-04-10T02:32:02.743584Z",
      "apogee_km": 484.2550864366958,
      "perigee_km": 481.86574304898477,
      "latitude_deg": 5.712759566942384e-06,
      "longitude_deg": 118.46717274821727,
      "height_km": 482.9403479186155,
      "semi_major_axis_km": 6861.19741474284,
      "eccentricity": 0.00017412,
      "inclination_deg": 43.0061,
      "raan_deg": 354.8228,
      "arg_perigee_deg": 265.0879,
      "mean_anomaly_deg": 94.9774,
      "mean_motion_rev_day": 15.2757622
    },
    {
      "epoch": "2026-04-11T17:45:57.273408Z",
      "apogee_km": 484.37512415936544,
      "perigee_km": 481.7500292013283,
      "latitude_deg": -3.8698488874684835e-05,
      "longitude_deg": -120.8529788313529,
      "height_km": 482.8052591271117,
      "semi_major_axis_km": 6861.199576680347,
      "eccentricity": 0.0001913,
      "inclination_deg": 43.007,
      "raan_deg": 345.5911,
      "arg_perigee_deg": 271.5374,
      "mean_anomaly_deg": 88.5258,
      "mean_motion_rev_day": 15.27575498
    },
    {
      "epoch": "2026-04-12T23:34:56.019648Z",
      "apogee_km": 483.8137912691409,
      "perigee_km": 482.23092180558797,
      "latitude_deg": 1.3545788568469031e-05,
      "longitude_deg": 143.66238728077323,
      "height_km": 482.6872024972718,
      "semi_major_axis_km": 6861.159356537364,
      "eccentricity": 0.00011535,
      "inclination_deg": 43.0046,
      "raan_deg": 338.5757,
      "arg_perigee_deg": 278.1475,
      "mean_anomaly_deg": 81.9246,
      "mean_motion_rev_day": 15.2758893
    }
  ]
}